OBJECT_NAME,OBJECT_ID,EPOCH,MEAN_MOTION,ECCENTRICITY,INCLINATION,RA_OF_ASC_NODE,ARG_OF_PERICENTER,MEAN_ANOMALY,EPHEMERIS_TYPE,CLASSIFICATION_TYPE,NORAD_CAT_ID,ELEMENT_SET_NO,REV_AT_EPOCH,BSTAR,MEAN_MOTION_DOT,MEAN_MOTION_DDOT
STARLINK-11520 [DTC],2025-019F,2025-12-06T11:30:55.893312,15.70872185,.0001813,42.9990,147.6071,266.7040,93.3621,0,U,62834,999,4923,.22727386E-2,.302448E-2,0
STARLINK-11546 [DTC],2025-019G,2025-12-06T12:47:23.248608,15.70859150,.00021964,42.9997,148.0324,254.9673,105.0952,0,U,62835,999,4922,.22650585E-2,.301216E-2,0
STARLINK-11533 [DTC],2025-019H,2025-12-06T12:01:30.779616,15.70928374,.00019953,42.9985,147.7770,274.5065,85.5575,0,U,62836,999,4922,.22297256E-2,.297228E-2,0
STARLINK-11557 [DTC],2025-019J,2025-12-06T13:10:07.993632,15.70915240,.00018998,42.9998,147.2645,261.7055,98.3597,0,U,62837,999,4923,.1438254E-2,.188953E-2,0
STARLINK-11556 [DTC],2025-019K,2025-12-06T11:32:14.884512,15.70870996,.00017413,42.9990,147.6128,280.4072,79.6599,0,U,62838,999,4922,.23392483E-2,.311646E-2,0
STARLINK-11524 [DTC],2025-019L,2025-12-06T12:32:05.613216,15.70886149,.00021118,42.9999,147.9463,248.4860,111.5783,0,U,62839,999,4922,.25642641E-2,.343201E-2,0
STARLINK-11551 [DTC],2025-019M,2025-12-06T11:46:13.196064,15.70896614,.00020547,42.9989,147.6901,268.3751,91.6881,0,U,62840,999,4922,.12647874E-2,.165509E-2,0
STARLINK-11531 [DTC],2025-019N,2025-12-06T12:09:09.487584,15.71031821,.00017577,42.9995,147.8183,231.0586,129.0126,0,U,62841,999,4922,.22245353E-2,.297848E-2,0
STARLINK-32755,2025-019P,2025-12-06T14:06:32.842368,15.27579182,.00023003,42.9997,247.7284,248.3171,111.7436,0,U,62842,999,4809,.17785299E-2,.49005E-3,0
STARLINK-32797,2025-019Q,2025-12-06T11:04:17.095872,15.27597371,.00003986,42.9993,255.4177,317.5755,42.5066,0,U,62843,999,4799,.25458717E-2,.70504E-3,0
STARLINK-32794,2025-019R,2025-12-06T11:41:17.664864,15.27618432,.0001914,42.9942,255.6183,51.5552,308.5471,0,U,62844,999,4799,.16302926E-2,.44927E-3,0
STARLINK-32807,2025-019S,2025-12-06T10:30:30.782592,15.27611354,.00009629,42.9995,248.3162,269.9027,90.1714,0,U,62845,999,4807,.18719474E-2,.51661E-3,0
STARLINK-32804,2025-019T,2025-12-06T11:15:23.366880,15.27611615,.00007326,43.0000,255.4783,5.1791,354.9068,0,U,62846,999,4799,.2897908E-2,.80433E-3,0
STARLINK-32799,2025-019U,2025-12-06T10:53:10.878432,15.27617787,.00004798,43.0000,255.3569,340.0450,20.0383,0,U,62847,999,4799,.17110849E-2,.47179E-3,0
STARLINK-32781,2025-019V,2025-12-06T03:22:45.109632,15.27622363,.00013794,43.0002,257.3144,264.0277,96.0417,0,U,62848,999,4794,.22204846E-2,.61431E-3,0
STARLINK-32809,2025-019W,2025-12-06T04:21:44.939232,15.27617800,.00013562,42.9999,256.7620,269.2381,90.8315,0,U,62849,999,4795,.16000498E-2,.44082E-3,0
NVS-02 (IRNSS-1K),2025-020A,2025-12-06T02:45:02.989152,2.17587603,.73477742,21.0012,330.0567,21.9348,357.7367,0,U,62850,999,677,.34380671E-3,.434E-5,0
SPAINSAT NG I,2025-021A,2025-12-04T13:54:48.536352,1.00324380,.000403,0.2697,87.1864,208.1619,26.2690,0,U,62852,999,203,0,.164E-5,0
STARLINK-32868,2025-022A,2025-12-06T08:18:19.898496,15.30223006,.00012846,53.1598,202.8433,99.5115,260.6031,0,U,62854,999,4842,.1286578E-2,.37968E-3,0
STARLINK-32867,2025-022B,2025-12-06T08:22:53.453856,15.30223880,.00011836,53.1578,202.8518,103.4028,256.7105,0,U,62855,999,4761,.16712996E-2,.49507E-3,0
STARLINK-32860,2025-022C,2025-12-06T08:06:20.383488,15.30176981,.00014536,53.1586,203.4999,91.2637,268.8531,0,U,62856,999,4760,.1428299E-2,.42153E-3,0
STARLINK-32873,2025-022D,2025-12-06T08:04:49.246176,15.30220011,.00013531,53.1596,203.4969,109.7806,250.3341,0,U,62857,999,4760,.12113368E-2,.35712E-3,0
STARLINK-32866,2025-022E,2025-12-06T08:28:58.639872,15.30213978,.00015078,53.1585,202.8864,66.0769,294.0389,0,U,62858,999,4761,.19380688E-2,.57511E-3,0
STARLINK-32869,2025-022F,2025-12-06T00:55:24.776544,15.30202039,.00011752,53.1584,204.4636,91.5772,268.5363,0,U,62859,999,4756,.88554428E-3,.25961E-3,0
STARLINK-32831,2025-022G,2025-12-06T15:14:02.724000,15.30234298,.00023803,53.1578,201.7976,106.0753,254.0510,0,U,62860,999,4764,.14329543E-2,.4237E-3,0
STARLINK-32859,2025-022H,2025-12-06T08:12:25.060608,15.30229842,.0001182,53.1595,203.5252,76.1535,283.9597,0,U,62861,999,4760,.15168202E-2,.44878E-3,0
STARLINK-32864,2025-022J,2025-12-06T15:11:00.426048,15.30237047,.00013032,53.1582,201.7754,70.3559,289.7582,0,U,62862,999,4765,.16727248E-2,.4957E-3,0
STARLINK-32808,2025-022K,2025-12-06T14:08:52.970208,15.30223884,.00015156,53.1573,202.2280,115.6870,244.4288,0,U,62863,999,4764,.11744611E-2,.34613E-3,0
STARLINK-32862,2025-022L,2025-12-06T00:10:00.208704,15.30203659,.00012756,53.1589,204.9939,97.1744,262.9402,0,U,62864,999,4755,.12643388E-2,.37279E-3,0
STARLINK-32841,2025-022M,2025-12-06T01:15:09.667008,15.30169319,.00011574,53.1571,204.5658,91.9738,268.1396,0,U,62865,999,4755,.14663279E-2,.43281E-3,0
