[{"norad_id":"62834","company":"STARLINK","tle_line2":"2 62834  42.9990 147.6071 0001813 266.7040  93.3621 15.70872185 49238","launch_date":"2025-01-27","type":"LEO","tle_line1":"1 62834U 25019F   25340.47981358  .00302448  00000+0  22727-2 0  9991","satellite_name":"STARLINK-11520 [DTC]"},{"norad_id":"62835","company":"STARLINK","tle_line2":"2 62835  42.9997 148.0324 0002196 254.9673 105.0952 15.70859150 49222","launch_date":"2025-01-27","type":"LEO","tle_line1":"1 62835U 25019G   25340.53290797  .00301216  00000+0  22651-2 0  9997","satellite_name":"STARLINK-11546 [DTC]"},{"norad_id":"62836","company":"STARLINK","tle_line2":"2 62836  42.9985 147.7770 0001995 274.5065  85.5575 15.70928374 49228","launch_date":"2025-01-27","type":"LEO","tle_line1":"1 62836U 25019H   25340.50105069  .00297228  00000+0  22297-2 0  9995","satellite_name":"STARLINK-11533 [DTC]"},{"norad_id":"62837","company":"STARLINK","tle_line2":"2 62837  42.9998 147.2645 0001899 261.7055  98.3597 15.70915240 49234","launch_date":"2025-01-27","type":"LEO","tle_line1":"1 62837U 25019J   25340.54870363  .00188953  00000+0  14383-2 0  9997","satellite_name":"STARLINK-11557 [DTC]"},{"norad_id":"62838","company":"STARLINK","tle_line2":"2 62838  42.9990 147.6128 0001741 280.4072  79.6599 15.70870996 49221","launch_date":"2025-01-27","type":"LEO","tle_line1":"1 62838U 25019K   25340.48072783  .00311646  00000+0  23392-2 0  9998","satellite_name":"STARLINK-11556 [DTC]"},{"norad_id":"62839","company":"STARLINK","tle_line2":"2 62839  42.9999 147.9463 0002111 248.4860 111.5783 15.70886149 49225","launch_date":"2025-01-27","type":"LEO","tle_line1":"1 62839U 25019L   25340.52228719  .00343201  00000+0  25643-2 0  9999","satellite_name":"STARLINK-11524 [DTC]"},{"norad_id":"62840","company":"STARLINK","tle_line2":"2 62840  42.9989 147.6901 0002054 268.3751  91.6881 15.70896614 49221","launch_date":"2025-01-27","type":"LEO","tle_line1":"1 62840U 25019M   25340.49043051  .00165509  00000+0  12648-2 0  9995","satellite_name":"STARLINK-11551 [DTC]"},{"norad_id":"62841","company":"STARLINK","tle_line2":"2 62841  42.9995 147.8183 0001757 231.0586 129.0126 15.71031821 49225","launch_date":"2025-01-27","type":"LEO","tle_line1":"1 62841U 25019N   25340.50635981  .00297848  00000+0  22245-2 0  9993","satellite_name":"STARLINK-11531 [DTC]"},{"norad_id":"62842","company":"STARLINK","tle_line2":"2 62842  42.9997 247.7284 0002300 248.3171 111.7436 15.27579182 48090","launch_date":"2025-01-27","type":"LEO","tle_line1":"1 62842U 25019P   25340.58788012  .00049005  00000+0  17785-2 0  9999","satellite_name":"STARLINK-32755"},{"norad_id":"62843","company":"STARLINK","tle_line2":"2 62843  42.9993 255.4177 0000398 317.5755  42.5066 15.27597371 47994","launch_date":"2025-01-27","type":"LEO","tle_line1":"1 62843U 25019Q   25340.46130898  .00070504  00000+0  25459-2 0  9995","satellite_name":"STARLINK-32797"},{"norad_id":"62844","company":"STARLINK","tle_line2":"2 62844  42.9942 255.6183 0001914  51.5552 308.5471 15.27618432 47990","launch_date":"2025-01-27","type":"LEO","tle_line1":"1 62844U 25019R   25340.48701001  .00044927  00000+0  16303-2 0  9996","satellite_name":"STARLINK-32794"},{"norad_id":"62845","company":"STARLINK","tle_line2":"2 62845  42.9995 248.3162 0000962 269.9027  90.1714 15.27611354 48079","launch_date":"2025-01-27","type":"LEO","tle_line1":"1 62845U 25019S   25340.43785628  .00051661  00000+0  18719-2 0  9995","satellite_name":"STARLINK-32807"},{"norad_id":"62846","company":"STARLINK","tle_line2":"2 62846  43.0000 255.4783 0000732   5.1791 354.9068 15.27611615 47993","launch_date":"2025-01-27","type":"LEO","tle_line1":"1 62846U 25019T   25340.46902045  .00080433  00000+0  28979-2 0  9991","satellite_name":"STARLINK-32804"},{"norad_id":"62847","company":"STARLINK","tle_line2":"2 62847  43.0000 255.3569 0000479 340.0450  20.0383 15.27617787 47993","launch_date":"2025-01-27","type":"LEO","tle_line1":"1 62847U 25019U   25340.45359813  .00047179  00000+0  17111-2 0  9996","satellite_name":"STARLINK-32799"},{"norad_id":"62848","company":"STARLINK","tle_line2":"2 62848  43.0002 257.3144 0001379 264.0277  96.0417 15.27622363 47941","launch_date":"2025-01-27","type":"LEO","tle_line1":"1 62848U 25019V   25340.14079988  .00061431  00000+0  22205-2 0  9992","satellite_name":"STARLINK-32781"},{"norad_id":"62849","company":"STARLINK","tle_line2":"2 62849  42.9999 256.7620 0001356 269.2381  90.8315 15.27617800 47955","launch_date":"2025-01-27","type":"LEO","tle_line1":"1 62849U 25019W   25340.18177013  .00044082  00000+0  16000-2 0  9994","satellite_name":"STARLINK-32809"},{"norad_id":"62854","company":"STARLINK","tle_line2":"2 62854  53.1598 202.8433 0001284  99.5115 260.6031 15.30223006 48423","launch_date":"2025-02-01","type":"LEO","tle_line1":"1 62854U 25022A   25340.34606364  .00037968  00000+0  12866-2 0  9999","satellite_name":"STARLINK-32868"},{"norad_id":"62855","company":"STARLINK","tle_line2":"2 62855  53.1578 202.8518 0001183 103.4028 256.7105 15.30223880 47610","launch_date":"2025-02-01","type":"LEO","tle_line1":"1 62855U 25022B   25340.34922979  .00049507  00000+0  16713-2 0  9990","satellite_name":"STARLINK-32867"},{"norad_id":"62856","company":"STARLINK","tle_line2":"2 62856  53.1586 203.4999 0001453  91.2637 268.8531 15.30176981 47605","launch_date":"2025-02-01","type":"LEO","tle_line1":"1 62856U 25022C   25340.33773592  .00042153  00000+0  14283-2 0  9995","satellite_name":"STARLINK-32860"},{"norad_id":"62857","company":"STARLINK","tle_line2":"2 62857  53.1596 203.4969 0001353 109.7806 250.3341 15.30220011 47605","launch_date":"2025-02-01","type":"LEO","tle_line1":"1 62857U 25022D   25340.33668109  .00035712  00000+0  12113-2 0  9996","satellite_name":"STARLINK-32873"},{"norad_id":"62858","company":"STARLINK","tle_line2":"2 62858  53.1585 202.8864 0001507  66.0769 294.0389 15.30213978 47617","launch_date":"2025-02-01","type":"LEO","tle_line1":"1 62858U 25022E   25340.35345648  .00057511  00000+0  19381-2 0  9994","satellite_name":"STARLINK-32866"},{"norad_id":"62859","company":"STARLINK","tle_line2":"2 62859  53.1584 204.4636 0001175  91.5772 268.5363 15.30202039 47568","launch_date":"2025-02-01","type":"LEO","tle_line1":"1 62859U 25022F   25340.03848121  .00025961  00000+0  88554-3 0  9997","satellite_name":"STARLINK-32869"},{"norad_id":"62860","company":"STARLINK","tle_line2":"2 62860  53.1578 201.7976 0002380 106.0753 254.0510 15.30234298 47645","launch_date":"2025-02-01","type":"LEO","tle_line1":"1 62860U 25022G   25340.63475375  .00042370  00000+0  14330-2 0  9995","satellite_name":"STARLINK-32831"},{"norad_id":"62861","company":"STARLINK","tle_line2":"2 62861  53.1595 203.5252 0001182  76.1535 283.9597 15.30229842 47607","launch_date":"2025-02-01","type":"LEO","tle_line1":"1 62861U 25022H   25340.34195672  .00044878  00000+0  15168-2 0  9998","satellite_name":"STARLINK-32859"},{"norad_id":"62862","company":"STARLINK","tle_line2":"2 62862  53.1582 201.7754 0001303  70.3559 289.7582 15.30237047 47657","launch_date":"2025-02-01","type":"LEO","tle_line1":"1 62862U 25022J   25340.63264382  .00049570  00000+0  16727-2 0  9992","satellite_name":"STARLINK-32864"},{"norad_id":"62863","company":"STARLINK","tle_line2":"2 62863  53.1573 202.2280 0001515 115.6870 244.4288 15.30223884 47646","launch_date":"2025-02-01","type":"LEO","tle_line1":"1 62863U 25022K   25340.58950197  .00034613  00000+0  11745-2 0  9990","satellite_name":"STARLINK-32808"},{"norad_id":"62864","company":"STARLINK","tle_line2":"2 62864  53.1589 204.9939 0001275  97.1744 262.9402 15.30203659 47552","launch_date":"2025-02-01","type":"LEO","tle_line1":"1 62864U 25022L   25340.00694686  .00037279  00000+0  12643-2 0  9995","satellite_name":"STARLINK-32862"},{"norad_id":"62865","company":"STARLINK","tle_line2":"2 62865  53.1571 204.5658 0001157  91.9738 268.1396 15.30169319 47556","launch_date":"2025-02-01","type":"LEO","tle_line1":"1 62865U 25022M   25340.05219522  .00043281  00000+0  14663-2 0  9997","satellite_name":"STARLINK-32841"},{"norad_id":"62850","company":"ACTIVE","tle_line2":"2 62850  21.0012 330.0567 7347774  21.9348 357.7367  2.17587603  6776","launch_date":"2025-01-29","type":"GEO","tle_line1":"1 62850U 25020A   25340.11461793  .00000434  00000+0  34381-3 0  9998","satellite_name":"NVS-02 (IRNSS-1K)"},{"norad_id":"62852","company":"ACTIVE","tle_line2":"2 62852   0.2697  87.1864 0004030 208.1619  26.2690  1.00324380  2038","launch_date":"2025-01-30","type":"GEO","tle_line1":"1 62852U 25021A   25338.57972843  .00000164  00000+0  00000+0 0  9998","satellite_name":"SPAINSAT NG I"}]